[{"OBJECT_NAME":"STARLINK-35769","OBJECT_ID":"2025-280X","EPOCH":"2026-03-09T21:57:25.785792","MEAN_MOTION":14.98327792,"ECCENTRICITY":0.00037575,"INCLINATION":70.0017,"RA_OF_ASC_NODE":333.7221,"ARG_OF_PERICENTER":286.9763,"MEAN_ANOMALY":73.0984,"EPHEMERIS_TYPE":0,"CLASSIFICATION_TYPE":"U","NORAD_CAT_ID":66842,"ELEMENT_SET_NO":999,"REV_AT_EPOCH":1611,"BSTAR":0.0013743089,"MEAN_MOTION_DOT":0.00016343,"MEAN_MOTION_DDOT":0},{"OBJECT_NAME":"SL-8 DEB","OBJECT_ID":"1972-043D","EPOCH":"2026-03-09T22:05:55.512096","MEAN_MOTION":15.0117212,"ECCENTRICITY":0.00057803,"INCLINATION":74.0604,"RA_OF_ASC_NODE":30.4168,"ARG_OF_PERICENTER":131.677,"MEAN_ANOMALY":228.4914,"EPHEMERIS_TYPE":0,"CLASSIFICATION_TYPE":"U","NORAD_CAT_ID":6065,"ELEMENT_SET_NO":999,"REV_AT_EPOCH":84295,"BSTAR":0.0010977341,"MEAN_MOTION_DOT":0.00014073,"MEAN_MOTION_DDOT":0}]
